{"fetched_at":"2026-03-29T02:12:04Z","count":15717,"tles":[{"name":"STARLINK-2180","line1":"1 47762U 21017AS  26087.53397295  .00069857  00000+0  10332-2 0  9998","line2":"2 47762  53.1616 128.9621 0001623  73.9780 286.1410 15.54691117280579","category":"Starlink"}]}